{
  "62109": {
    "noradId": "62109",
    "tle": [
      "1 62109C 24220X   26030.80187500 -.00058530  00000+0 -21215-2 0   309",
      "2 62109  43.0001  59.3123 0001408 265.5516 290.4625 15.27612432    16"
    ]
  },
  "62110": {
    "noradId": "62110",
    "tle": [
      "1 62110C 24220Y   26030.80326389 -.00017119  00000+0 -61908-3 0   303",
      "2 62110  43.0032  59.5416 0000731 256.9882 207.4826 15.27647434    18"
    ]
  },
  "62114": {
    "noradId": "62114",
    "tle": [
      "1 62114C 24222A   26030.80465278  .00051872  00000+0  18781-2 0   302",
      "2 62114  43.0028 335.1590 0001414 256.6881 264.7170 15.27538737    11"
    ]
  },
  "62115": {
    "noradId": "62115",
    "tle": [
      "1 62115C 24222B   26030.80187500 -.00020065  00000+0 -72665-3 0   306",
      "2 62115  43.0033 349.9799 0001150 270.6771 195.6805 15.27603119    17"
    ]
  },
  "62116": {
    "noradId": "62116",
    "tle": [
      "1 62116C 24222C   26030.80673611 -.00026642  00000+0 -96523-3 0   306",
      "2 62116  43.0035 350.2399 0001488 266.9549 105.9523 15.27595568    15"
    ]
  },
  "62117": {
    "noradId": "62117",
    "tle": [
      "1 62117C 24222D   26030.80812500 -.00013725  00000+0 -49747-3 0   303",
      "2 62117  43.0033 346.4779 0001282 249.0295 206.8098 15.27568734    18"
    ]
  },
  "62118": {
    "noradId": "62118",
    "tle": [
      "1 62118C 24222E   26030.80395833 -.00030322  00000+0 -10981-2 0   308",
      "2 62118  43.0014 349.7846 0001419 274.1352 281.5271 15.27611482    16"
    ]
  },
  "62119": {
    "noradId": "62119",
    "tle": [
      "1 62119C 24222F   26030.80812500 -.00016826  00000+0 -60953-3 0   302",
      "2 62119  43.0021 346.8818 0001561 270.2319  65.1702 15.27589614    16"
    ]
  },
  "62120": {
    "noradId": "62120",
    "tle": [
      "1 62120C 24222G   26030.80673611 -.00014681  00000+0 -53189-3 0   302",
      "2 62120  43.0030 350.4226 0001327 273.7835  21.3272 15.27583292    15"
    ]
  },
  "62121": {
    "noradId": "62121",
    "tle": [
      "1 62121C 24222H   26030.80187500 -.00015472  00000+0 -56045-3 0   303",
      "2 62121  43.0018 349.8773 0001393 261.8563 246.9837 15.27590214    14"
    ]
  },
  "62122": {
    "noradId": "62122",
    "tle": [
      "1 62122C 24222J   26030.80395833 -.00020161  00000+0 -73018-3 0   304",
      "2 62122  43.0034 350.1021 0001523 269.4700 151.7884 15.27600537    11"
    ]
  },
  "62123": {
    "noradId": "62123",
    "tle": [
      "1 62123C 24222K   26030.80534722 -.00035225  00000+0 -12757-2 0   306",
      "2 62123  43.0041 350.3465 0001518 265.5766  57.2158 15.27618087    10"
    ]
  },
  "62124": {
    "noradId": "62124",
    "tle": [
      "1 62124C 24222L   26030.80465278 -.00026580  00000+0 -96272-3 0   305",
      "2 62124  43.0032 350.0127 0001313 273.4116 187.0444 15.27604746    10"
    ]
  },
  "62125": {
    "noradId": "62125",
    "tle": [
      "1 62125C 24222M   26030.80395833  .00063525  00000+0  23030-2 0   304",
      "2 62125  43.0022 350.4870 0001554 272.1149 346.4419 15.27485628    17"
    ]
  },
  "62126": {
    "noradId": "62126",
    "tle": [
      "1 62126C 24222N   26030.80812500 -.00049231  00000+0 -17825-2 0   305",
      "2 62126  43.0016 349.7931 0001471 272.1895 292.2509 15.27638558    16"
    ]
  },
  "62127": {
    "noradId": "62127",
    "tle": [
      "1 62127C 24222P   26030.80673611 -.00025349  00000+0 -91831-3 0   308",
      "2 62127  43.0025 339.5238 0001559 272.6413 177.2791 15.27597694    12"
    ]
  },
  "62128": {
    "noradId": "62128",
    "tle": [
      "1 62128C 24222Q   26030.80118056 -.00042283  00000+0 -15315-2 0   304",
      "2 62128  43.0037 350.3192 0001555 264.4244  56.6443 15.27620503    13"
    ]
  },
  "62129": {
    "noradId": "62129",
    "tle": [
      "1 62129C 24222R   26030.80326389 -.00034584  00000+0 -12526-2 0   301",
      "2 62129  43.0036 346.8233 0001699 262.0990  81.9079 15.27613006    16"
    ]
  },
  "62130": {
    "noradId": "62130",
    "tle": [
      "1 62130C 24222S   26030.80187500 -.00010035  00000+0 -36351-3 0   301",
      "2 62130  43.0025 349.9255 0001572 271.7078 215.8974 15.27585552    14"
    ]
  },
  "62131": {
    "noradId": "62131",
    "tle": [
      "1 62131C 24222T   26030.80187500 -.00021288  00000+0 -77118-3 0   300",
      "2 62131  43.0040 350.3975 0001486 270.6034  18.9186 15.27593829    14"
    ]
  },
  "62132": {
    "noradId": "62132",
    "tle": [
      "1 62132C 24222U   26030.80673611 -.00033209  00000+0 -12029-2 0   309",
      "2 62132  43.0014 349.7164 0001488 268.1640 324.0429 15.27608981    12"
    ]
  },
  "62133": {
    "noradId": "62133",
    "tle": [
      "1 62133C 24222V   26030.80812500 -.00018026  00000+0 -65311-3 0   305",
      "2 62133  43.0033 350.1781 0001396 267.0629 134.7174 15.27585194    11"
    ]
  },
  "62134": {
    "noradId": "62134",
    "tle": [
      "1 62134C 24222W   26030.80534722 -.00045465  00000+0 -16467-2 0   307",
      "2 62134  43.0024 346.8600 0001599 265.8321  68.4329 15.27624867    10"
    ]
  },
  "62135": {
    "noradId": "62135",
    "tle": [
      "1 62135C 24222X   26030.80604167 -.00019668  00000+0 -71246-3 0   302",
      "2 62135  43.0015 350.5269 0001602 258.2955 350.4900 15.27594049    15"
    ]
  },
  "62136": {
    "noradId": "62136",
    "tle": [
      "1 62136C 24222Y   26030.80743056 -.00009952  00000+0 -36050-3 0   303",
      "2 62136  43.0032 350.0448 0001716 267.5596 186.9645 15.27584039    15"
    ]
  },
  "62137": {
    "noradId": "62137",
    "tle": [
      "1 62137C 24222Z   26030.80812500  .00022985  00000+0  83229-3 0   304",
      "2 62137  43.0033 350.1265 0001226 262.2332 160.6184 15.27564972    12"
    ]
  },
  "62139": {
    "noradId": "62139",
    "tle": [
      "1 62139C 24224A   26030.80673611 -.00028119  00000+0 -10181-2 0   309",
      "2 62139  43.0042  12.2888 0001796 244.1821 122.2240 15.27617731    14"
    ]
  },
  "62140": {
    "noradId": "62140",
    "tle": [
      "1 62140C 24224B   26030.80812500 -.00010103  00000+0 -36596-3 0   306",
      "2 62140  43.0027  12.3592 0001370 262.1820  69.4767 15.27587711    19"
    ]
  },
  "62141": {
    "noradId": "62141",
    "tle": [
      "1 62141C 24224C   26030.80673611  .00009144  00000+0  33122-3 0   308",
      "2 62141  43.0025  11.8600 0001395 263.4469 272.8471 15.27567834    18"
    ]
  },
  "62142": {
    "noradId": "62142",
    "tle": [
      "1 62142C 24224D   26030.80673611 -.00017491  00000+0 -63351-3 0   302",
      "2 62142  43.0024  19.5757 0001543 269.1264 292.8879 15.27597102    12"
    ]
  },
  "62143": {
    "noradId": "62143",
    "tle": [
      "1 62143C 24224E   26030.80465278 -.00022825  00000+0 -82621-3 0   309",
      "2 62143  43.0011  15.2403 0001161 239.3136 323.4292 15.27621633    10"
    ]
  },
  "62144": {
    "noradId": "62144",
    "tle": [
      "1 62144C 24224F   26030.80743056 -.00001839  00000+0 -66613-4 0   309",
      "2 62144  43.0001  19.5270 0001618 278.9779 308.1141 15.27577128    10"
    ]
  },
  "62145": {
    "noradId": "62145",
    "tle": [
      "1 62145C 24224G   26030.80256944 -.00009006  00000+0 -32623-3 0   302",
      "2 62145  43.0034  12.1696 0001709 267.2599 125.7939 15.27583985    16"
    ]
  },
  "62146": {
    "noradId": "62146",
    "tle": [
      "1 62146C 24224H   26030.80604167 -.00002526  00000+0 -91616-4 0   305",
      "2 62146  43.0035  12.1695 0001492 268.3710 136.8166 15.27541568    19"
    ]
  },
  "62147": {
    "noradId": "62147",
    "tle": [
      "1 62147C 24224J   26030.80743056 -.00023185  00000+0 -83973-3 0   307",
      "2 62147  43.0042  12.2927 0001585 263.3031  92.8435 15.27602920    11"
    ]
  },
  "62148": {
    "noradId": "62148",
    "tle": [
      "1 62148C 24224K   26030.80187500  .00000832  00000+0  30127-4 0   300",
      "2 62148  43.0033  12.0559 0001347 253.4097 185.3436 15.27576427    10"
    ]
  },
  "62149": {
    "noradId": "62149",
    "tle": [
      "1 62149C 24224L   26030.80465278  .00003539  00000+0  12819-3 0   306",
      "2 62149  43.0034  12.0210 0001438 264.8362 196.2829 15.27573549    17"
    ]
  },
  "62150": {
    "noradId": "62150",
    "tle": [
      "1 62150C 24224M   26030.80326389 -.00019087  00000+0 -69140-3 0   303",
      "2 62150  43.0013  11.6754 0001522 263.0071 339.0609 15.27594268    10"
    ]
  },
  "62151": {
    "noradId": "62151",
    "tle": [
      "1 62151C 24224N   26030.80604167  .00006470  00000+0  23437-3 0   306",
      "2 62151  43.0041  12.2811 0001493 274.6270  80.9662 15.27565751    15"
    ]
  },
  "62152": {
    "noradId": "62152",
    "tle": [
      "1 62152C 24224P   26030.80604167 -.00005779  00000+0 -20930-3 0   305",
      "2 62152  43.0010  15.3689 0001392 264.9710 248.9109 15.27584129    10"
    ]
  },
  "62153": {
    "noradId": "62153",
    "tle": [
      "1 62153C 24224Q   26030.80256944  .00028248  00000+0  10231-2 0   308",
      "2 62153  43.0038  12.2687 0001525 263.4696  87.0552 15.27551477    14"
    ]
  },
  "62154": {
    "noradId": "62154",
    "tle": [
      "1 62154C 24224R   26030.80187500 -.00019647  00000+0 -71157-3 0   300",
      "2 62154  43.0032  12.3727 0001495 267.3631  36.9706 15.27599273    13"
    ]
  },
  "62155": {
    "noradId": "62155",
    "tle": [
      "1 62155C 24224S   26030.80326389 -.00010979  00000+0 -39764-3 0   308",
      "2 62155  43.0019  19.6428 0001449 261.5917 260.0766 15.27590125    12"
    ]
  },
  "62156": {
    "noradId": "62156",
    "tle": [
      "1 62156C 24224T   26030.80673611 -.00002533  00000+0 -91741-4 0   303",
      "2 62156  43.0032  11.9061 0001378 263.5094 251.5395 15.27579525    19"
    ]
  },
  "62157": {
    "noradId": "62157",
    "tle": [
      "1 62157C 24224U   26030.80187500  .00040952  00000+0  14833-2 0   301",
      "2 62157  43.0041  19.5010 0001343 264.6975 312.9533 15.27536521    15"
    ]
  }
}